{"type": "FeatureCollection", "features": [ {"type": "Feature", "properties": {"norad_id": 66506, "name": "STARLINK-34765", "group": "last-30-days", "lat": 7.129773485541716, "lon": -4.5220785820635, "alt_km": 346.51744872718064, "timestamp": "2025-12-02T21:34:00.042606+00:00", "meta": {"OBJECT_NAME": "STARLINK-34765", "OBJECT_ID": "2025-263X", "EPOCH": "2025-12-02T12:00:05.998752", "MEAN_MOTION": 15.75467408, "ECCENTRICITY": 0.0001575, "INCLINATION": 42.9984, "RA_OF_ASC_NODE": 185.61, "ARG_OF_PERICENTER": 265.8336, "MEAN_ANOMALY": 161.5445, "EPHEMERIS_TYPE": 0, "CLASSIFICATION_TYPE": "U", "NORAD_CAT_ID": 66506, "ELEMENT_SET_NO": 999, "REV_AT_EPOCH": 399, "BSTAR": -0.012598, "MEAN_MOTION_DOT": -0.01737795, "MEAN_MOTION_DDOT": 0}, "tle": {"line1": "1 66506U 25263X   25336.50006943 -.01737795  00000+0 -12598-1 0  9993", "line2": "2 66506  42.9984 185.6100 0001575 265.8336 161.5445 15.75467408  3997"}}, "geometry": {"type": "Point", "coordinates": [-4.5220785820635, 7.129773485541716]}}, {"type": "Feature", "properties": {"norad_id": 66507, "name": "STARLINK-34767", "group": "last-30-days", "lat": 4.532795590652739, "lon": -1.6981714294104915, "alt_km": 347.01823772749594, "timestamp": "2025-12-02T21:34:00.042616+00:00", "meta": {"OBJECT_NAME": "STARLINK-34767", "OBJECT_ID": "2025-263Y", "EPOCH": "2025-12-02T12:00:05.998752", "MEAN_MOTION": 15.75407582, "ECCENTRICITY": 0.0001422, "INCLINATION": 42.9983, "RA_OF_ASC_NODE": 185.5998, "ARG_OF_PERICENTER": 278.1536, "MEAN_ANOMALY": 153.0815, "EPHEMERIS_TYPE": 0, "CLASSIFICATION_TYPE": "U", "NORAD_CAT_ID": 66507, "ELEMENT_SET_NO": 999, "REV_AT_EPOCH": 399, "BSTAR": -0.011953, "MEAN_MOTION_DOT": -0.01654998, "MEAN_MOTION_DDOT": 0}, "tle": {"line1": "1 66507U 25263Y   25336.50006943 -.01654998  00000+0 -11953-1 0  9991", "line2": "2 66507  42.9983 185.5998 0001422 278.1536 153.0815 15.75407582  3995"}}, "geometry": {"type": "Point", "coordinates": [-1.6981714294104915, 4.532795590652739]}}, {"type": "Feature", "properties": {"norad_id": 66508, "name": "STARLINK-35608", "group": "last-30-days", "lat": 0.6187076169326037, "lon": 2.504318205412841, "alt_km": 347.36336514722734, "timestamp": "2025-12-02T21:34:00.042626+00:00", "meta": {"OBJECT_NAME": "STARLINK-35608", "OBJECT_ID": "2025-263Z", "EPOCH": "2025-12-02T12:00:05.998752", "MEAN_MOTION": 15.75399932, "ECCENTRICITY": 0.0001597, "INCLINATION": 42.9982, "RA_OF_ASC_NODE": 185.5856, "ARG_OF_PERICENTER": 274.9635, "MEAN_ANOMALY": 162.0233, "EPHEMERIS_TYPE": 0, "CLASSIFICATION_TYPE": "U", "NORAD_CAT_ID": 66508, "ELEMENT_SET_NO": 999, "REV_AT_EPOCH": 399, "BSTAR": -0.011835, "MEAN_MOTION_DOT": -0.01640185, "MEAN_MOTION_DDOT": 0}, "tle": {"line1": "1 66508U 25263Z   25336.50006943 -.01640185  00000+0 -11835-1 0  9994", "line2": "2 66508  42.9982 185.5856 0001597 274.9635 162.0233 15.75399932  3998"}}, "geometry": {"type": "Point", "coordinates": [2.504318205412841, 0.6187076169326037]}}, {"type": "Feature", "properties": {"norad_id": 66509, "name": "STARLINK-35598", "group": "last-30-days", "lat": -4.606159295198851, "lon": 8.107678473974236, "alt_km": 347.83457631467536, "timestamp": "2025-12-02T21:34:00.042638+00:00", "meta": {"OBJECT_NAME": "STARLINK-35598", "OBJECT_ID": "2025-263AA", "EPOCH": "2025-12-02T12:00:05.998752", "MEAN_MOTION": 15.75397257, "ECCENTRICITY": 0.0001262, "INCLINATION": 42.9981, "RA_OF_ASC_NODE": 185.5646, "ARG_OF_PERICENTER": 274.3562, "MEAN_ANOMALY": 170.3016, "EPHEMERIS_TYPE": 0, "CLASSIFICATION_TYPE": "U", "NORAD_CAT_ID": 66509, "ELEMENT_SET_NO": 999, "REV_AT_EPOCH": 399, "BSTAR": -0.011817, "MEAN_MOTION_DOT": -0.01637573, "MEAN_MOTION_DDOT": 0}, "tle": {"line1": "1 66509U 25263AA  25336.50006943 -.01637573  00000+0 -11817-1 0  9992", "line2": "2 66509  42.9981 185.5646 0001262 274.3562 170.3016 15.75397257  3996"}}, "geometry": {"type": "Point", "coordinates": [8.107678473974236, -4.606159295198851]}}, {"type": "Feature", "properties": {"norad_id": 66510, "name": "STARLINK-35600", "group": "last-30-days", "lat": -0.6916720958107154, "lon": 3.9046344797437866, "alt_km": 347.1414881036035, "timestamp": "2025-12-02T21:34:00.042649+00:00", "meta": {"OBJECT_NAME": "STARLINK-35600", "OBJECT_ID": "2025-263AB", "EPOCH": "2025-12-02T12:00:05.998752", "MEAN_MOTION": 15.75425171, "ECCENTRICITY": 0.0001483, "INCLINATION": 42.9983, "RA_OF_ASC_NODE": 185.5795, "ARG_OF_PERICENTER": 258.794, "MEAN_ANOMALY": 180.1088, "EPHEMERIS_TYPE": 0, "CLASSIFICATION_TYPE": "U", "NORAD_CAT_ID": 66510, "ELEMENT_SET_NO": 999, "REV_AT_EPOCH": 399, "BSTAR": -0.012192, "MEAN_MOTION_DOT": -0.01685485, "MEAN_MOTION_DDOT": 0}, "tle": {"line1": "1 66510U 25263AB  25336.50006943 -.01685485  00000+0 -12192-1 0  9996", "line2": "2 66510  42.9983 185.5795 0001483 258.7940 180.1088 15.75425171  3991"}}, "geometry": {"type": "Point", "coordinates": [3.9046344797437866, -0.6916720958107154]}}, {"type": "Feature", "properties": {"norad_id": 66511, "name": "STARLINK-35444", "group": "last-30-days", "lat": -3.3017154317736246, "lon": 6.702722808045776, "alt_km": 347.6109885412343, "timestamp": "2025-12-02T21:34:00.042661+00:00", "meta": {"OBJECT_NAME": "STARLINK-35444", "OBJECT_ID": "2025-263AC", "EPOCH": "2025-12-02T12:00:05.998752", "MEAN_MOTION": 15.75397594, "ECCENTRICITY": 0.0001431, "INCLINATION": 42.9983, "RA_OF_ASC_NODE": 185.5703, "ARG_OF_PERICENTER": 270.169, "MEAN_ANOMALY": 172.5697, "EPHEMERIS_TYPE": 0, "CLASSIFICATION_TYPE": "U", "NORAD_CAT_ID": 66511, "ELEMENT_SET_NO": 999, "REV_AT_EPOCH": 399, "BSTAR": -0.011797, "MEAN_MOTION_DOT": -0.01635226, "MEAN_MOTION_DDOT": 0}, "tle": {"line1": "1 66511U 25263AC  25336.50006943 -.01635226  00000+0 -11797-1 0  9995", "line2": "2 66511  42.9983 185.5703 0001431 270.1690 172.5697 15.75397594  3992"}}, "geometry": {"type": "Point", "coordinates": [6.702722808045776, -3.3017154317736246]}}, {"type": "Feature", "properties": {"norad_id": 66512, "name": "STARLINK-35366", "group": "last-30-days", "lat": -5.904353597955859, "lon": 9.515116142204574, "alt_km": 347.7596456434094, "timestamp": "2025-12-02T21:34:00.042673+00:00", "meta": {"OBJECT_NAME": "STARLINK-35366", "OBJECT_ID": "2025-263AD", "EPOCH": "2025-12-02T12:00:05.998752", "MEAN_MOTION": 15.75399668, "ECCENTRICITY": 0.0001574, "INCLINATION": 42.9981, "RA_OF_ASC_NODE": 185.56, "ARG_OF_PERICENTER": 266.4398, "MEAN_ANOMALY": 180.1356, "EPHEMERIS_TYPE": 0, "CLASSIFICATION_TYPE": "U", "NORAD_CAT_ID": 66512, "ELEMENT_SET_NO": 999, "REV_AT_EPOCH": 399, "BSTAR": -0.01186, "MEAN_MOTION_DOT": -0.01643198, "MEAN_MOTION_DDOT": 0}, "tle": {"line1": "1 66512U 25263AD  25336.50006943 -.01643198  00000+0 -11860-1 0  9994", "line2": "2 66512  42.9981 185.5600 0001574 266.4398 180.1356 15.75399668  3999"}}, "geometry": {"type": "Point", "coordinates": [9.515116142204574, -5.904353597955859]}}, {"type": "Feature", "properties": {"norad_id": 66513, "name": "STARLINK-35692", "group": "last-30-days", "lat": -1.9950682000065418, "lon": 5.300079187724858, "alt_km": 347.8696770509323, "timestamp": "2025-12-02T21:34:00.042685+00:00", "meta": {"OBJECT_NAME": "STARLINK-35692", "OBJECT_ID": "2025-263AE", "EPOCH": "2025-12-02T12:00:05.998752", "MEAN_MOTION": 15.75404325, "ECCENTRICITY": 0.000155, "INCLINATION": 42.9983, "RA_OF_ASC_NODE": 185.5748, "ARG_OF_PERICENTER": 284.9574, "MEAN_ANOMALY": 155.8638, "EPHEMERIS_TYPE": 0, "CLASSIFICATION_TYPE": "U", "NORAD_CAT_ID": 66513, "ELEMENT_SET_NO": 999, "REV_AT_EPOCH": 399, "BSTAR": -0.011918, "MEAN_MOTION_DOT": -0.01650572, "MEAN_MOTION_DDOT": 0}, "tle": {"line1": "1 66513U 25263AE  25336.50006943 -.01650572  00000+0 -11918-1 0  9993", "line2": "2 66513  42.9983 185.5748 0001550 284.9574 155.8638 15.75404325  3999"}}, "geometry": {"type": "Point", "coordinates": [5.300079187724858, -1.9950682000065418]}}, {"type": "Feature", "properties": {"norad_id": 66514, "name": "SENTINEL-6B", "group": "last-30-days", "lat": -16.03149555018847, "lon": 175.63721684227593, "alt_km": 1319.223097054578, "timestamp": "2025-12-02T21:34:00.042696+00:00", "meta": {"OBJECT_NAME": "SENTINEL-6B", "OBJECT_ID": "2025-264A", "EPOCH": "2025-12-02T12:19:29.316000", "MEAN_MOTION": 12.85877401, "ECCENTRICITY": 0.0011523, "INCLINATION": 66.0387, "RA_OF_ASC_NODE": 183.7849, "ARG_OF_PERICENTER": 268.7805, "MEAN_ANOMALY": 91.1893, "EPHEMERIS_TYPE": 0, "CLASSIFICATION_TYPE": "U", "NORAD_CAT_ID": 66514, "ELEMENT_SET_NO": 999, "REV_AT_EPOCH": 197, "BSTAR": 0.00033559, "MEAN_MOTION_DOT": 2.1e-07, "MEAN_MOTION_DDOT": 0}, "tle": {"line1": "1 66514U 25264A   25336.51353375  .00000021  00000+0  33559-3 0  9992", "line2": "2 66514  66.0387 183.7849 0011523 268.7805  91.1893 12.85877401  1973"}}, "geometry": {"type": "Point", "coordinates": [175.63721684227593, -16.03149555018847]}}, {"type": "Feature", "properties": {"norad_id": 66516, "name": "STARLINK-35924", "group": "last-30-days", "lat": -17.549594331879618, "lon": -47.67627725914332, "alt_km": 345.8107921168548, "timestamp": "2025-12-02T21:34:00.042706+00:00", "meta": {"OBJECT_NAME": "STARLINK-35924", "OBJECT_ID": "2025-265A", "EPOCH": "2025-12-02T12:00:05.998752", "MEAN_MOTION": 15.75046728, "ECCENTRICITY": 0.0001443, "INCLINATION": 42.9991, "RA_OF_ASC_NODE": 114.9022, "ARG_OF_PERICENTER": 266.252, "MEAN_ANOMALY": 197.3738, "EPHEMERIS_TYPE": 0, "CLASSIFICATION_TYPE": "U", "NORAD_CAT_ID": 66516, "ELEMENT_SET_NO": 999, "REV_AT_EPOCH": 332, "BSTAR": -8.1474e-05, "MEAN_MOTION_DOT": -0.00012977, "MEAN_MOTION_DDOT": 0}, "tle": {"line1": "1 66516U 25265A   25336.50006943 -.00012977  00000+0 -81474-4 0  9995", "line2": "2 66516  42.9991 114.9022 0001443 266.2520 197.3738 15.75046728  3325"}}, "geometry": {"type": "Point", "coordinates": [-47.67627725914332, -17.549594331879618]}}]}